{"type": "FeatureCollection", "features": [ {"type": "Feature", "properties": {"norad_id": 33153, "name": "INTELSAT 25 (IS-25)", "group": "intelsat", "lat": -2.1895405506044905, "lon": -6.508475127749214, "alt_km": 35787.91526676973, "timestamp": "2025-12-03T20:47:57.884565+00:00", "meta": {"OBJECT_NAME": "INTELSAT 25 (IS-25)", "OBJECT_ID": "2008-034A", "EPOCH": "2025-12-03T08:28:06.107808", "MEAN_MOTION": 1.00271413, "ECCENTRICITY": 0.0005342, "INCLINATION": 2.2016, "RA_OF_ASC_NODE": 82.7527, "ARG_OF_PERICENTER": 177.2563, "MEAN_ANOMALY": 267.969, "EPHEMERIS_TYPE": 0, "CLASSIFICATION_TYPE": "U", "NORAD_CAT_ID": 33153, "ELEMENT_SET_NO": 999, "REV_AT_EPOCH": 6373, "BSTAR": 0, "MEAN_MOTION_DOT": -2.06e-06, "MEAN_MOTION_DDOT": 0}, "tle": {"line1": "1 33153U 08034A   25337.35284847 -.00000206  00000+0  00000+0 0  9998", "line2": "2 33153   2.2016  82.7527 0005342 177.2563 267.9690  1.00271413 63731"}}, "geometry": {"type": "Point", "coordinates": [-6.508475127749214, -2.1895405506044905]}}, {"type": "Feature", "properties": {"norad_id": 33376, "name": "GALAXY 19 (G-19)", "group": "intelsat", "lat": -0.027178675482180673, "lon": -72.06072797855659, "alt_km": 35773.0569927791, "timestamp": "2025-12-03T20:47:57.884577+00:00", "meta": {"OBJECT_NAME": "GALAXY 19 (G-19)", "OBJECT_ID": "2008-045A", "EPOCH": "2025-12-03T09:52:13.049760", "MEAN_MOTION": 1.00270834, "ECCENTRICITY": 0.000344, "INCLINATION": 0.0171, "RA_OF_ASC_NODE": 19.6363, "ARG_OF_PERICENTER": 244.4356, "MEAN_ANOMALY": 219.4911, "EPHEMERIS_TYPE": 0, "CLASSIFICATION_TYPE": "U", "NORAD_CAT_ID": 33376, "ELEMENT_SET_NO": 999, "REV_AT_EPOCH": 6294, "BSTAR": 0, "MEAN_MOTION_DOT": -1.21e-06, "MEAN_MOTION_DDOT": 0}, "tle": {"line1": "1 33376U 08045A   25337.41126215 -.00000121  00000+0  00000+0 0  9994", "line2": "2 33376   0.0171  19.6363 0003440 244.4356 219.4911  1.00270834 62943"}}, "geometry": {"type": "Point", "coordinates": [-72.06072797855659, -0.027178675482180673]}}, {"type": "Feature", "properties": {"norad_id": 35493, "name": "FM-5", "group": "intelsat", "lat": 0.0009887888675188883, "lon": -61.2138997960385, "alt_km": 35790.156407111695, "timestamp": "2025-12-03T20:47:57.884589+00:00", "meta": {"OBJECT_NAME": "FM-5", "OBJECT_ID": "2009-034A", "EPOCH": "2025-12-03T09:55:20.250912", "MEAN_MOTION": 1.00269598, "ECCENTRICITY": 0.0001147, "INCLINATION": 0.0227, "RA_OF_ASC_NODE": 284.8547, "ARG_OF_PERICENTER": 238.3665, "MEAN_ANOMALY": 331.9799, "EPHEMERIS_TYPE": 0, "CLASSIFICATION_TYPE": "U", "NORAD_CAT_ID": 35493, "ELEMENT_SET_NO": 999, "REV_AT_EPOCH": 4468, "BSTAR": 0, "MEAN_MOTION_DOT": -1.82e-06, "MEAN_MOTION_DDOT": 0}, "tle": {"line1": "1 35493U 09034A   25337.41342883 -.00000182  00000+0  00000+0 0  9993", "line2": "2 35493   0.0227 284.8547 0001147 238.3665 331.9799  1.00269598 44684"}}, "geometry": {"type": "Point", "coordinates": [-61.2138997960385, 0.0009887888675188883]}}, {"type": "Feature", "properties": {"norad_id": 36097, "name": "INTELSAT 14 (IS-14)", "group": "intelsat", "lat": 0.020261474616796858, "lon": -20.04755897389271, "alt_km": 35785.37233499604, "timestamp": "2025-12-03T20:47:57.884601+00:00", "meta": {"OBJECT_NAME": "INTELSAT 14 (IS-14)", "OBJECT_ID": "2009-064A", "EPOCH": "2025-12-03T08:24:21.466944", "MEAN_MOTION": 1.00271378, "ECCENTRICITY": 0.0002644, "INCLINATION": 0.016, "RA_OF_ASC_NODE": 304.2441, "ARG_OF_PERICENTER": 310.2273, "MEAN_ANOMALY": 259.0649, "EPHEMERIS_TYPE": 0, "CLASSIFICATION_TYPE": "U", "NORAD_CAT_ID": 36097, "ELEMENT_SET_NO": 999, "REV_AT_EPOCH": 5864, "BSTAR": 0, "MEAN_MOTION_DOT": -2.55e-06, "MEAN_MOTION_DDOT": 0}, "tle": {"line1": "1 36097U 09064A   25337.35024846 -.00000255  00000+0  00000+0 0  9997", "line2": "2 36097   0.0160 304.2441 0002644 310.2273 259.0649  1.00271378 58643"}}, "geometry": {"type": "Point", "coordinates": [-20.04755897389271, 0.020261474616796858]}}, {"type": "Feature", "properties": {"norad_id": 36106, "name": "INTELSAT 15 (IS-15)", "group": "intelsat", "lat": 0.022558025315507574, "lon": 110.06028701406696, "alt_km": 35794.845712446804, "timestamp": "2025-12-03T20:47:57.884613+00:00", "meta": {"OBJECT_NAME": "INTELSAT 15 (IS-15)", "OBJECT_ID": "2009-067A", "EPOCH": "2025-12-03T10:44:08.078208", "MEAN_MOTION": 1.00270332, "ECCENTRICITY": 0.0002442, "INCLINATION": 0.0146, "RA_OF_ASC_NODE": 328.0009, "ARG_OF_PERICENTER": 285.7231, "MEAN_ANOMALY": 65.0084, "EPHEMERIS_TYPE": 0, "CLASSIFICATION_TYPE": "U", "NORAD_CAT_ID": 36106, "ELEMENT_SET_NO": 999, "REV_AT_EPOCH": 3926, "BSTAR": 0, "MEAN_MOTION_DOT": -1.67e-06, "MEAN_MOTION_DDOT": 0}, "tle": {"line1": "1 36106U 09067A   25337.44731572 -.00000167  00000+0  00000+0 0  9994", "line2": "2 36106   0.0146 328.0009 0002442 285.7231  65.0084  1.00270332 39262"}}, "geometry": {"type": "Point", "coordinates": [110.06028701406696, 0.022558025315507574]}}, {"type": "Feature", "properties": {"norad_id": 36131, "name": "DIRECTV 12", "group": "intelsat", "lat": 0.0003205144776489568, "lon": -77.7987124538211, "alt_km": 35786.45402898888, "timestamp": "2025-12-03T20:47:57.884625+00:00", "meta": {"OBJECT_NAME": "DIRECTV 12", "OBJECT_ID": "2009-075A", "EPOCH": "2025-12-03T09:50:35.706336", "MEAN_MOTION": 1.00270402, "ECCENTRICITY": 7e-06, "INCLINATION": 0.0134, "RA_OF_ASC_NODE": 83.6727, "ARG_OF_PERICENTER": 112.5896, "MEAN_ANOMALY": 281.172, "EPHEMERIS_TYPE": 0, "CLASSIFICATION_TYPE": "U", "NORAD_CAT_ID": 36131, "ELEMENT_SET_NO": 999, "REV_AT_EPOCH": 4459, "BSTAR": 0, "MEAN_MOTION_DOT": -8.5e-07, "MEAN_MOTION_DDOT": 0}, "tle": {"line1": "1 36131U 09075A   25337.41013549 -.00000085  00000+0  00000+0 0  9994", "line2": "2 36131   0.0134  83.6727 0000070 112.5896 281.1720  1.00270402 44595"}}, "geometry": {"type": "Point", "coordinates": [-77.7987124538211, 0.0003205144776489568]}}, {"type": "Feature", "properties": {"norad_id": 36397, "name": "INTELSAT 16 (IS-16)", "group": "intelsat", "lat": -0.004338108478571593, "lon": -51.262806164026465, "alt_km": 35780.61909341004, "timestamp": "2025-12-03T20:47:57.884637+00:00", "meta": {"OBJECT_NAME": "INTELSAT 16 (IS-16)", "OBJECT_ID": "2010-006A", "EPOCH": "2025-12-03T09:58:04.988064", "MEAN_MOTION": 1.00269955, "ECCENTRICITY": 0.0002378, "INCLINATION": 0.0121, "RA_OF_ASC_NODE": 313.059, "ARG_OF_PERICENTER": 302.3904, "MEAN_ANOMALY": 250.3777, "EPHEMERIS_TYPE": 0, "CLASSIFICATION_TYPE": "U", "NORAD_CAT_ID": 36397, "ELEMENT_SET_NO": 999, "REV_AT_EPOCH": 5769, "BSTAR": 0, "MEAN_MOTION_DOT": -2.26e-06, "MEAN_MOTION_DDOT": 0}, "tle": {"line1": "1 36397U 10006A   25337.41533551 -.00000226  00000+0  00000+0 0  9991", "line2": "2 36397   0.0121 313.0590 0002378 302.3904 250.3777  1.00269955 57691"}}, "geometry": {"type": "Point", "coordinates": [-51.262806164026465, -0.004338108478571593]}}, {"type": "Feature", "properties": {"norad_id": 37185, "name": "XM-5", "group": "intelsat", "lat": -0.019120628304450132, "lon": -90.25153170577228, "alt_km": 35789.45804705864, "timestamp": "2025-12-03T20:47:57.884649+00:00", "meta": {"OBJECT_NAME": "XM-5", "OBJECT_ID": "2010-053A", "EPOCH": "2025-12-02T10:37:38.767584", "MEAN_MOTION": 1.00270481, "ECCENTRICITY": 0.0001582, "INCLINATION": 0.0649, "RA_OF_ASC_NODE": 272.7549, "ARG_OF_PERICENTER": 239.5567, "MEAN_ANOMALY": 323.4678, "EPHEMERIS_TYPE": 0, "CLASSIFICATION_TYPE": "U", "NORAD_CAT_ID": 37185, "ELEMENT_SET_NO": 999, "REV_AT_EPOCH": 5551, "BSTAR": 0, "MEAN_MOTION_DOT": -2e-08, "MEAN_MOTION_DDOT": 0}, "tle": {"line1": "1 37185U 10053A   25336.44280981 -.00000002  00000+0  00000+0 0  9999", "line2": "2 37185   0.0649 272.7549 0001582 239.5567 323.4678  1.00270481 55516"}}, "geometry": {"type": "Point", "coordinates": [-90.25153170577228, -0.019120628304450132]}}, {"type": "Feature", "properties": {"norad_id": 37238, "name": "INTELSAT 17 (IS-17)", "group": "intelsat", "lat": 0.016594906302398255, "lon": 90.90487946830271, "alt_km": 35797.0843277163, "timestamp": "2025-12-03T20:47:57.884661+00:00", "meta": {"OBJECT_NAME": "INTELSAT 17 (IS-17)", "OBJECT_ID": "2010-065B", "EPOCH": "2025-12-03T10:38:46.092192", "MEAN_MOTION": 1.00267665, "ECCENTRICITY": 0.0002381, "INCLINATION": 0.016, "RA_OF_ASC_NODE": 283.1971, "ARG_OF_PERICENTER": 335.7412, "MEAN_ANOMALY": 39.2864, "EPHEMERIS_TYPE": 0, "CLASSIFICATION_TYPE": "U", "NORAD_CAT_ID": 37238, "ELEMENT_SET_NO": 999, "REV_AT_EPOCH": 5128, "BSTAR": 0, "MEAN_MOTION_DOT": 1.7e-07, "MEAN_MOTION_DDOT": 0}, "tle": {"line1": "1 37238U 10065B   25337.44358903  .00000017  00000+0  00000+0 0  9997", "line2": "2 37238   0.0160 283.1971 0002381 335.7412  39.2864  1.00267665 51283"}}, "geometry": {"type": "Point", "coordinates": [90.90487946830271, 0.016594906302398255]}}, {"type": "Feature", "properties": {"norad_id": 37392, "name": "INTELSAT 28 (IS-28)", "group": "intelsat", "lat": -1.2848994908791007, "lon": -6.739170232633472, "alt_km": 35788.148649757255, "timestamp": "2025-12-03T20:47:57.884673+00:00", "meta": {"OBJECT_NAME": "INTELSAT 28 (IS-28)", "OBJECT_ID": "2011-016A", "EPOCH": "2025-12-03T08:28:06.107808", "MEAN_MOTION": 1.0027129, "ECCENTRICITY": 0.0004078, "INCLINATION": 1.2983, "RA_OF_ASC_NODE": 85.1678, "ARG_OF_PERICENTER": 172.439, "MEAN_ANOMALY": 270.1581, "EPHEMERIS_TYPE": 0, "CLASSIFICATION_TYPE": "U", "NORAD_CAT_ID": 37392, "ELEMENT_SET_NO": 999, "REV_AT_EPOCH": 5132, "BSTAR": 0, "MEAN_MOTION_DOT": -2.06e-06, "MEAN_MOTION_DDOT": 0}, "tle": {"line1": "1 37392U 11016A   25337.35284847 -.00000206  00000+0  00000+0 0  9991", "line2": "2 37392   1.2983  85.1678 0004078 172.4390 270.1581  1.00271290 51326"}}, "geometry": {"type": "Point", "coordinates": [-6.739170232633472, -1.2848994908791007]}}]}